CTC1_L_00207016-03
1 10062U 26325UW  26075.70032407  .00000000  00000+0  00000-0 0  9999
2 10062  45.0000 180.0000 0000000   0.0000   0.0000 13.42494874    16
CTC1_L_00207016-04
1 10063U 22192WS  26075.70032407  .00000000  00000+0  00000-0 0  9998
2 10063  45.0000 180.0000 0000000   0.0000  90.0000 13.42494874    16
CTC1_L_00207017-01
1 10064U 25761JX  26075.70032407  .00000000  00000+0  00000-0 0  9994
2 10064  45.0000 192.0000 0000000   0.0000 192.0000 13.42494874    13
CTC1_L_00207017-02
1 10065U 25837LC  26075.70032407  .00000000  00000+0  00000-0 0  9999
2 10065  45.0000 192.0000 0000000   0.0000 282.0000 13.42494874    14
CTC1_L_00207017-03
1 10066U 23862L   26075.70032407  .00000000  00000+0  00000-0 0  9996
2 10066  45.0000 192.0000 0000000   0.0000  12.0000 13.42494874    16
CTC1_L_00207017-04
1 10067U 26868AQ  26075.70032407  .00000000  00000+0  00000-0 0  9996
2 10067  45.0000 192.0000 0000000   0.0000 102.0000 13.42494874    17
CTC1_L_00207018-01
1 10068U 24729YF  26075.70032407  .00000000  00000+0  00000-0 0  9991
2 10068  45.0000 204.0000 0000000   0.0000 204.0000 13.42494874    15
CTC1_L_00207018-02
1 10069U 24671SJ  26075.70032407  .00000000  00000+0  00000-0 0  9998
2 10069  45.0000 204.0000 0000000   0.0000 294.0000 13.42494874    15
CTC1_L_00207018-03
1 10070U 24317ZL  26075.70032407  .00000000  00000+0  00000-0 0  9997
2 10070  45.0000 204.0000 0000000   0.0000  24.0000 13.42494874    18
CTC1_L_00207018-04
1 10071U 26202YM  26075.70032407  .00000000  00000+0  00000-0 0  9993
2 10071  45.0000 204.0000 0000000   0.0000 114.0000 13.42494874    19
CTC1_L_00207019-01
1 10072U 24140VH  26075.70032407  .00000000  00000+0  00000-0 0  9993
2 10072  45.0000 216.0000 0000000   0.0000 216.0000 13.42494874    16
CTC1_L_00207019-02
1 10073U 24138XN  26075.70032407  .00000000  00000+0  00000-0 0  9991
2 10073  45.0000 216.0000 0000000   0.0000 306.0000 13.42494874    17
CTC1_L_00207019-03
1 10074U 22712AQ  26075.70032407  .00000000  00000+0  00000-0 0  9998
2 10074  45.0000 216.0000 0000000   0.0000  36.0000 13.42494874    18
CTC1_L_00207019-04
1 10075U 26387VW  26075.70032407  .00000000  00000+0  00000-0 0  9991
2 10075  45.0000 216.0000 0000000   0.0000 126.0000 13.42494874    19
CTC1_L_00207020-01
1 10076U 23885IN  26075.70032407  .00000000  00000+0  00000-0 0  9992
2 10076  45.0000 228.0000 0000000   0.0000 228.0000 13.42494874    16
CTC1_L_00207020-02
1 10077U 26260WQ  26075.70032407  .00000000  00000+0  00000-0 0  9993
2 10077  45.0000 228.0000 0000000   0.0000 318.0000 13.42494874    17
CTC1_L_00207020-03
1 10078U 22547AC  26075.70032407  .00000000  00000+0  00000-0 0  9998
2 10078  45.0000 228.0000 0000000   0.0000  48.0000 13.42494874    18
CTC1_L_00207020-04
1 10079U 24122RU  26075.70032407  .00000000  00000+0  00000-0 0  9990
2 10079  45.0000 228.0000 0000000   0.0000 138.0000 13.42494874    19
CTC1_L_00207021-01
1 10080U 25322AT  26075.70032407  .00000000  00000+0  00000-0 0  9995
2 10080  45.0000 240.0000 0000000   0.0000 240.0000 13.42494874    19
CTC1_L_00207021-02
1 10081U 25806UP  26075.70032407  .00000000  00000+0  00000-0 0  9993
2 10081  45.0000 240.0000 0000000   0.0000 330.0000 13.42494874    10
CTC1_L_00207021-03
1 10082U 23812WY  26075.70032407  .00000000  00000+0  00000-0 0  9999
2 10082  45.0000 240.0000 0000000   0.0000  60.0000 13.42494874    11
CTC1_L_00207021-04
1 10083U 23292R   26075.70032407  .00000000  00000+0  00000-0 0  9992
2 10083  45.0000 240.0000 0000000   0.0000 150.0000 13.42494874    12
CTC1_L_00207022-01
1 10084U 23422RB  26075.70032407  .00000000  00000+0  00000-0 0  9998
2 10084  45.0000 252.0000 0000000   0.0000 252.0000 13.42494874    19
CTC1_L_00207022-02
1 10085U 25821P   26075.70032407  .00000000  00000+0  00000-0 0  9994
2 10085  45.0000 252.0000 0000000   0.0000 342.0000 13.42494874    10
CTC1_L_00207022-03
1 10086U 25305JN  26075.70032407  .00000000  00000+0  00000-0 0  9992
2 10086  45.0000 252.0000 0000000   0.0000  72.0000 13.42494874    11
CTC1_L_00207022-04
1 10087U 22873SR  26075.70032407  .00000000  00000+0  00000-0 0  9990
2 10087  45.0000 252.0000 0000000   0.0000 162.0000 13.42494874    12
CTC1_L_00207023-01
1 10088U 22172UC  26075.70032407  .00000000  00000+0  00000-0 0  9993
2 10088  45.0000 264.0000 0000000   0.0000 264.0000 13.42494874    19
CTC1_L_00207023-02
1 10089U 26080ZF  26075.70032407  .00000000  00000+0  00000-0 0  9996
2 10089  45.0000 264.0000 0000000   0.0000 354.0000 13.42494874    10
CTC1_L_00207023-03
1 10090U 26599FV  26075.70032407  .00000000  00000+0  00000-0 0  9993
2 10090  45.0000 264.0000 0000000   0.0000  84.0000 13.42494874    12
CTC1_L_00207023-04
1 10091U 24550DA  26075.70032407  .00000000  00000+0  00000-0 0  9999
2 10091  45.0000 264.0000 0000000   0.0000 174.0000 13.42494874    13
CTC1_L_00207024-01
1 10092U 22958ND  26075.70032407  .00000000  00000+0  00000-0 0  9990
2 10092  45.0000 276.0000 0000000   0.0000 276.0000 13.42494874    10
CTC1_L_00207024-02
1 10093U 26359FE  26075.70032407  .00000000  00000+0  00000-0 0  9990
2 10093  45.0000 276.0000 0000000   0.0000   6.0000 13.42494874    12
CTC1_L_00207024-03
1 10094U 22043JX  26075.70032407  .00000000  00000+0  00000-0 0  9997
2 10094  45.0000 276.0000 0000000   0.0000  96.0000 13.42494874    12
CTC1_L_00207024-04
1 10095U 22620GY  26075.70032407  .00000000  00000+0  00000-0 0  9999
2 10095  45.0000 276.0000 0000000   0.0000 186.0000 13.42494874    13
CTC1_L_00207025-01
1 10096U 23360NH  26075.70032407  .00000000  00000+0  00000-0 0  9992
2 10096  45.0000 288.0000 0000000   0.0000 288.0000 13.42494874    10
CTC1_L_00207025-02
1 10097U 23168JJ  26075.70032407  .00000000  00000+0  00000-0 0  9999
2 10097  45.0000 288.0000 0000000   0.0000  18.0000 13.42494874    12
CTC1_L_00207025-03
1 10098U 25038QU  26075.70032407  .00000000  00000+0  00000-0 0  9998
2 10098  45.0000 288.0000 0000000   0.0000 108.0000 13.42494874    13
CTC1_L_00207025-04
1 10099U 25644GI  26075.70032407  .00000000  00000+0  00000-0 0  9992
2 10099  45.0000 288.0000 0000000   0.0000 198.0000 13.42494874    13
CTC1_L_00207026-01
1 10100U 26710QU  26075.70032407  .00000000  00000+0  00000-0 0  9990
2 10100  45.0000 300.0000 0000000   0.0000 300.0000 13.42494874    16
CTC1_L_00207026-02
1 10101U 25139XY  26075.70032407  .00000000  00000+0  00000-0 0  9995
2 10101  45.0000 300.0000 0000000   0.0000  30.0000 13.42494874    17
CTC1_L_00207026-03
1 10102U 22201QX  26075.70032407  .00000000  00000+0  00000-0 0  9993
2 10102  45.0000 300.0000 0000000   0.0000 120.0000 13.42494874    18
CTC1_L_00207026-04
1 10103U 23037DC  26075.70032407  .00000000  00000+0  00000-0 0  9992
2 10103  45.0000 300.0000 0000000   0.0000 210.0000 13.42494874    19
CTC1_L_00207027-01
1 10104U 26288DK  26075.70032407  .00000000  00000+0  00000-0 0  9994
2 10104  45.0000 312.0000 0000000   0.0000 312.0000 13.42494874    16
CTC1_L_00207027-02
1 10105U 23677HF  26075.70032407  .00000000  00000+0  00000-0 0  9994
2 10105  45.0000 312.0000 0000000   0.0000  42.0000 13.42494874    17
CTC1_L_00207027-03
1 10106U 23464LH  26075.70032407  .00000000  00000+0  00000-0 0  9999
2 10106  45.0000 312.0000 0000000   0.0000 132.0000 13.42494874    18
CTC1_L_00207027-04
1 10107U 22420SH  26075.70032407  .00000000  00000+0  00000-0 0  9991
2 10107  45.0000 312.0000 0000000   0.0000 222.0000 13.42494874    19
CTC1_L_00207028-01
1 10108U 22111AV  26075.70032407  .00000000  00000+0  00000-0 0  9999
2 10108  45.0000 324.0000 0000000   0.0000 324.0000 13.42494874    16
CTC1_L_00207028-02
1 10109U 24295GR  26075.70032407  .00000000  00000+0  00000-0 0  9995
2 10109  45.0000 324.0000 0000000   0.0000  54.0000 13.42494874    17
CTC1_L_00207028-03
1 10110U 23416CO  26075.70032407  .00000000  00000+0  00000-0 0  9991
2 10110  45.0000 324.0000 0000000   0.0000 144.0000 13.42494874    19
CTC1_L_00207028-04
1 10111U 24470QT  26075.70032407  .00000000  00000+0  00000-0 0  9993
2 10111  45.0000 324.0000 0000000   0.0000 234.0000 13.42494874    10
CTC1_L_00207029-01
1 10112U 25302N   26075.70032407  .00000000  00000+0  00000-0 0  9999
2 10112  45.0000 336.0000 0000000   0.0000 336.0000 13.42494874    17
CTC1_L_00207029-02
1 10113U 22303RU  26075.70032407  .00000000  00000+0  00000-0 0  9998
2 10113  45.0000 336.0000 0000000   0.0000  66.0000 13.42494874    18
CTC1_L_00207029-03
1 10114U 24823YW  26075.70032407  .00000000  00000+0  00000-0 0  9998
2 10114  45.0000 336.0000 0000000   0.0000 156.0000 13.42494874    19
CTC1_L_00207029-04
1 10115U 22443IZ  26075.70032407  .00000000  00000+0  00000-0 0  9995
2 10115  45.0000 336.0000 0000000   0.0000 246.0000 13.42494874    10
CTC1_L_00207030-01
1 10116U 26863YJ  26075.70032407  .00000000  00000+0  00000-0 0  9996
2 10116  45.0000 348.0000 0000000   0.0000 348.0000 13.42494874    17
CTC1_L_00207030-02
1 10117U 22359YP  26075.70032407  .00000000  00000+0  00000-0 0  9993
2 10117  45.0000 348.0000 0000000   0.0000  78.0000 13.42494874    18
CTC1_L_00207030-03
1 10118U 25595YT  26075.70032407  .00000000  00000+0  00000-0 0  9999
2 10118  45.0000 348.0000 0000000   0.0000 168.0000 13.42494874    19
CTC1_L_00207030-04
1 10119U 26707QB  26075.70032407  .00000000  00000+0  00000-0 0  9996
2 10119  45.0000 348.0000 0000000   0.0000 258.0000 13.42494874    10
